CCSDS_OMM_VERS,COMMENT,CREATION_DATE,ORIGINATOR,OBJECT_NAME,OBJECT_ID,CENTER_NAME,REF_FRAME,TIME_SYSTEM,MEAN_ELEMENT_THEORY,EPOCH,MEAN_MOTION,ECCENTRICITY,INCLINATION,RA_OF_ASC_NODE,ARG_OF_PERICENTER,MEAN_ANOMALY,EPHEMERIS_TYPE,CLASSIFICATION_TYPE,NORAD_CAT_ID,ELEMENT_SET_NO,REV_AT_EPOCH,BSTAR,MEAN_MOTION_DOT,MEAN_MOTION_DDOT,SEMIMAJOR_AXIS,PERIOD,APOAPSIS,PERIAPSIS,OBJECT_TYPE,RCS_SIZE,COUNTRY_CODE,LAUNCH_DATE,SITE,DECAY_DATE,FILE,GP_ID,TLE_LINE0,TLE_LINE1,TLE_LINE2,,,,,,,AVG_ALTITUDE,,AVG_VELOCITY
2,GENERATED VIA SPACE-TRACK.ORG API,2022-06-03T07:16:12,18 SPCS,OBJECT A,2021-061A,EARTH,TEME,UTC,SGP4,2022-06-03T03:49:17.657760,15.10276841,0.001129,97.4936,219.999,195.5319,248.5279,0,U,49003,999,5055,0.00010169,1.60E-05,0,6913.492,95.347,543.162,527.552,UNKNOWN,LARGE,PRC,7/3/2021,TSC,,3478498,205226968,0 OBJECT A,1 49003U 21061A   22154.15923215  .00001603  00000-0  10169-3 0  9998,2 49003  97.4936 219.9990 0011290 195.5319 248.5279 15.10276841 50558,,,,,,,543.492,,7.593118668
2,GENERATED VIA SPACE-TRACK.ORG API,2022-06-03T06:46:12,18 SPCS,OBJECT B,2021-061B,EARTH,TEME,UTC,SGP4,2022-06-03T03:51:26.279712,15.11695637,0.0011629,97.4936,220.409,210.4186,233.6988,0,U,49004,999,5057,0.00021764,3.65E-05,0,6909.166,95.257,539.065,522.996,UNKNOWN,MEDIUM,PRC,7/3/2021,TSC,,3478196,205219288,0 OBJECT B,1 49004U 21061B   22154.16072083  .00003646  00000-0  21764-3 0  9990,2 49004  97.4936 220.4090 0011629 210.4186 233.6988 15.11695637 50575,,,,,,,539.166,,7.595495416
2,GENERATED VIA SPACE-TRACK.ORG API,2022-06-03T07:16:12,18 SPCS,OBJECT C,2021-061C,EARTH,TEME,UTC,SGP4,2022-06-03T04:00:00.181728,15.11334205,0.001329,97.495,220.2831,206.9949,237.2581,0,U,49005,999,5057,0.00021749,3.61E-05,0,6910.267,95.28,541.316,522.948,UNKNOWN,MEDIUM,PRC,7/3/2021,TSC,,3478498,205226976,0 OBJECT C,1 49005U 21061C   22154.16666877  .00003609  00000-0  21749-3 0  9993,2 49005  97.4950 220.2831 0013290 206.9949 237.2581 15.11334205 50576,,,,,,,540.267,,7.594890304
2,GENERATED VIA SPACE-TRACK.ORG API,2022-06-03T07:16:12,18 SPCS,OBJECT D,2021-061D,EARTH,TEME,UTC,SGP4,2022-06-03T04:40:18.816672,15.11505754,0.0012002,97.4935,220.3548,207.8101,236.5621,0,U,49006,999,5057,0.00023691,3.95E-05,0,6909.744,95.269,539.902,523.316,UNKNOWN,MEDIUM,PRC,7/3/2021,TSC,,3478498,205226970,0 OBJECT D,1 49006U 21061D   22154.19466223  .00003954  00000-0  23691-3 0  9991,2 49006  97.4935 220.3548 0012002 207.8101 236.5621 15.11505754 50572,,,,,,,539.744,,7.595177728
2,GENERATED VIA SPACE-TRACK.ORG API,2022-06-03T07:16:12,18 SPCS,OBJECT E,2021-061E,EARTH,TEME,UTC,SGP4,2022-06-03T03:35:08.730240,15.11388704,0.001165,97.4938,220.2851,205.9344,237.8863,0,U,49007,999,5056,0.00019613,3.25E-05,0,6910.101,95.277,540.016,523.916,UNKNOWN,MEDIUM,PRC,7/3/2021,TSC,,3478506,205226962,0 OBJECT E,1 49007U 21061E   22154.14940660  .00003251  00000-0  19613-3 0  9998,2 49007  97.4938 220.2851 0011650 205.9344 237.8863 15.11388704 50563,,,,,,,540.101,,7.594981529
2,GENERATED VIA SPACE-TRACK.ORG API,2022-06-03T07:16:12,18 SPCS,FENGYUN 3E,2021-062A,EARTH,TEME,UTC,SGP4,2022-06-03T01:34:00.868512,14.19731942,0.0002664,98.7101,156.2517,51.056,309.0854,0,U,49008,999,4727,1.56E-05,-1.10E-07,0,7204.396,101.428,828.181,824.342,PAYLOAD,LARGE,PRC,7/4/2021,JSC,,3478496,205226931,0 FENGYUN 3E,1 49008U 21062A   22154.06528783 -.00000011  00000-0  15640-4 0  9998,2 49008  98.7101 156.2517 0002664  51.0560 309.0854 14.19731942 47271,,,,,,,834.396,,7.438239046
2,GENERATED VIA SPACE-TRACK.ORG API,2022-06-02T17:55:29,18 SPCS,ORCA-7,2021-013C,EARTH,TEME,UTC,SGP4,2022-06-02T06:58:24.938688,15.34469071,0.000901,51.6232,105.8001,48.8359,311.3399,0,U,49013,999,5152,0.00060897,0.00020342,0,6840.635,93.844,468.663,456.337,PAYLOAD,MEDIUM,US,2/20/2021,WLPIS,,3477482,205178128,0 ORCA-7,1 49013U 21013C   22153.29056642  .00020342  00000-0  60897-3 0  9995,2 49013  51.6232 105.8001 0009010  48.8359 311.3399 15.34469071 51522,,,,,,,470.635,,7.63344728
2,GENERATED VIA SPACE-TRACK.ORG API,2022-06-03T06:26:12,18 SPCS,GUNSMOKE-J 2,2021-013D,EARTH,TEME,UTC,SGP4,2022-06-03T03:26:40.815744,15.27469207,0.0012712,51.6206,106.719,44.1783,316.0209,0,U,49014,999,5155,0.00029751,7.78E-05,0,6861.518,94.274,492.105,474.661,PAYLOAD,MEDIUM,US,2/20/2021,WLPIS,,3478049,205215712,0 GUNSMOKE-J 2,1 49014U 21013D   22154.14352796  .00007782  00000-0  29751-3 0  9997,2 49014  51.6206 106.7190 0012712  44.1783 316.0209 15.27469207 51554,,,,,,,491.518,,7.621822246
2,GENERATED VIA SPACE-TRACK.ORG API,2022-06-02T17:55:29,18 SPCS,ORCA-6,2021-013E,EARTH,TEME,UTC,SGP4,2022-06-02T13:18:02.234592,15.3447918,0.0009909,51.6224,104.5351,52.4899,307.6982,0,U,49015,999,5153,0.00066119,0.00022138,0,6840.605,93.843,469.248,455.692,PAYLOAD,MEDIUM,US,2/20/2021,WLPIS,,3477482,205177127,0 ORCA-6,1 49015U 21013E   22153.55419253  .00022138  00000-0  66119-3 0  9995,2 49015  51.6224 104.5351 0009909  52.4899 307.6982 15.34479180 51535,,,,,,,470.605,,7.633464019
2,GENERATED VIA SPACE-TRACK.ORG API,2022-06-02T17:55:29,18 SPCS,DHABISAT,2021-013F,EARTH,TEME,UTC,SGP4,2022-06-02T10:28:29.176320,15.26649977,0.0006905,51.5937,111.191,35.9463,324.1979,0,U,49016,999,5155,0.00027909,7.08E-05,0,6863.972,94.324,490.577,481.098,PAYLOAD,SMALL,UAE,2/20/2021,WLPIS,,3477482,205177377,0 DHABISAT,1 49016U 21013F   22153.43644880  .00007084  00000-0  27909-3 0  9996,2 49016  51.5937 111.1910 0006905  35.9463 324.1979 15.26649977 51553,,,,,,,493.972,,7.620459652
2,GENERATED VIA SPACE-TRACK.ORG API,2022-06-03T07:16:12,18 SPCS,IT-SPINS,2021-013G,EARTH,TEME,UTC,SGP4,2022-06-03T02:46:09.957792,15.26367415,0.0009612,51.5979,108.3023,30.768,329.386,0,U,49017,999,5159,0.00019504,4.80E-05,0,6864.819,94.342,493.283,480.086,PAYLOAD,SMALL,US,2/20/2021,WLPIS,,3478498,205227383,0 IT-SPINS,1 49017U 21013G   22154.11539303  .00004802  00000-0  19504-3 0  9993,2 49017  51.5979 108.3023 0009612  30.7680 329.3860 15.26367415 51599,,,,,,,494.819,,7.619989521
2,GENERATED VIA SPACE-TRACK.ORG API,2022-06-03T07:16:12,18 SPCS,NINGXIA-1 6,2021-064A,EARTH,TEME,UTC,SGP4,2022-06-03T03:03:33.484032,14.08041503,0.000863,45.0018,48.3304,9.005,351.0942,0,U,49018,999,4630,3.02E-05,-8.00E-07,0,7244.218,102.27,872.335,859.832,PAYLOAD,MEDIUM,PRC,7/9/2021,TSC,,3478498,205227378,0 NINGXIA-1 6,1 49018U 21064A   22154.12747088 -.00000080  00000-0  30178-4 0  9998,2 49018  45.0018  48.3304 0008630   9.0050 351.0942 14.08041503 46308,,,,,,,874.218,,7.417766599
2,GENERATED VIA SPACE-TRACK.ORG API,2022-06-03T07:16:12,18 SPCS,NINGXIA-1 7,2021-064B,EARTH,TEME,UTC,SGP4,2022-06-03T02:43:13.739808,14.08062167,0.0008147,45.0065,48.3182,16.175,343.9346,0,U,49019,999,4631,2.42E-05,-9.00E-07,0,7244.148,102.268,871.914,860.111,PAYLOAD,MEDIUM,PRC,7/9/2021,TSC,,3478498,205227375,0 NINGXIA-1 7,1 49019U 21064B   22154.11335347 -.00000090  00000-0  24241-4 0  9994,2 49019  45.0065  48.3182 0008147  16.1750 343.9346 14.08062167 46312,,,,,,,874.148,,7.417802437
2,GENERATED VIA SPACE-TRACK.ORG API,2022-06-03T06:36:13,18 SPCS,NINGXIA-1 8,2021-064C,EARTH,TEME,UTC,SGP4,2022-06-03T00:39:30.530880,14.08066324,0.0008556,44.9977,48.3336,21.0338,339.0834,0,U,49020,999,4630,3.22E-05,-7.70E-07,0,7244.133,102.268,872.196,859.8,PAYLOAD,MEDIUM,PRC,7/9/2021,TSC,,3478145,205218223,0 NINGXIA-1 8,1 49020U 21064C   22154.02743670 -.00000077  00000-0  32163-4 0  9995,2 49020  44.9977  48.3336 0008556  21.0338 339.0834 14.08066324 46302,,,,,,,874.133,,7.417810117
2,GENERATED VIA SPACE-TRACK.ORG API,2022-06-03T04:46:12,18 SPCS,NINGXIA-1 9,2021-064D,EARTH,TEME,UTC,SGP4,2022-06-03T01:59:30.245280,14.08037649,0.000805,45.0054,48.1348,26.4995,333.3407,0,U,49021,999,4631,-0.0001808,-4.42E-06,0,7244.232,102.27,871.928,860.265,PAYLOAD,MEDIUM,PRC,7/9/2021,TSC,,3478000,205215314,0 NINGXIA-1 9,1 49021U 21064D   22154.08298895 -.00000442  00000-0 -18080-3 0  9994,2 49021  45.0054  48.1348 0008050  26.4995 333.3407 14.08037649 46311,,,,,,,874.232,,7.417759431
2,GENERATED VIA SPACE-TRACK.ORG API,2022-06-03T06:36:13,18 SPCS,NINGXIA-1 10,2021-064E,EARTH,TEME,UTC,SGP4,2022-06-03T03:22:24.334752,14.08068444,0.0008198,45.0025,47.6509,36.8225,323.3208,0,U,49022,999,4632,5.85E-05,-3.20E-07,0,7244.126,102.268,871.93,860.052,PAYLOAD,MEDIUM,PRC,7/9/2021,TSC,,3478093,205217268,0 NINGXIA-1 10,1 49022U 21064E   22154.14055943 -.00000032  00000-0  58492-4 0  9993,2 49022  45.0025  47.6509 0008198  36.8225 323.3208 14.08068444 46323,,,,,,,874.126,,7.417813701
2,GENERATED VIA SPACE-TRACK.ORG API,2022-06-03T07:16:12,18 SPCS,YAOGAN-30 AD,2021-065A,EARTH,TEME,UTC,SGP4,2022-06-03T05:14:23.204832,14.90508763,0.0006402,34.9953,169.9686,330.6831,29.3433,0,U,49026,999,4763,0.00018386,1.80E-05,0,6974.485,96.611,600.815,591.885,PAYLOAD,LARGE,PRC,7/19/2021,XSC,,3478499,205226984,0 YAOGAN-30 AD,1 49026U 21065A   22154.21832413  .00001803  00000-0  18386-3 0  9994,2 49026  34.9953 169.9686 0006402 330.6831  29.3433 14.90508763 47634,,,,,,,604.485,,7.559844235
2,GENERATED VIA SPACE-TRACK.ORG API,2022-06-03T06:26:12,18 SPCS,TIANQI-15,2021-065B,EARTH,TEME,UTC,SGP4,2022-06-03T01:54:43.853472,14.91900612,0.0007364,35.0032,166.2632,156.8828,203.2198,0,U,49027,999,4767,9.86E-05,9.89E-06,0,6970.147,96.521,597.144,586.879,PAYLOAD,MEDIUM,PRC,7/19/2021,XSC,,3478053,205215788,0 TIANQI-15,1 49027U 21065B   22154.07967423  .00000989  00000-0  98640-4 0  9995,2 49027  35.0032 166.2632 0007364 156.8828 203.2198 14.91900612 47673,,,,,,,600.147,,7.562196374
2,GENERATED VIA SPACE-TRACK.ORG API,2022-06-03T06:26:12,18 SPCS,YAOGAN-30 AE,2021-065C,EARTH,TEME,UTC,SGP4,2022-06-03T03:03:26.362080,14.90501859,5.97E-05,34.9954,170.1818,294.9533,65.1094,0,U,49028,999,4760,0.00011164,1.08E-05,0,6974.507,96.612,596.788,595.955,PAYLOAD,LARGE,PRC,7/19/2021,XSC,,3478051,205215746,0 YAOGAN-30 AE,1 49028U 21065C   22154.12738845  .00001084  00000-0  11164-3 0  9998,2 49028  34.9954 170.1818 0000597 294.9533  65.1094 14.90501859 47605,,,,,,,604.507,,7.559832312
